295P/LINEAR,e,21.0769,7.4098,72.9553,5.302637,0.0807172,0.61752569,288.9899,02/24.0/2024,2000,g 12.0,4.0
# From MPEC 2021-N06
296P/Garradd,e,25.2988,263.5190,349.9094,3.488299,0.1512807,0.48011881,189.7758,02/24.0/2024,2000,g 14.0,4.0
# From MPC102956
297P/Beshore,e,10.5880,94.5408,138.5735,3.499557,0.1505513,0.31535363,168.0440,02/24.0/2024,2000,g 15.0,4.0
# From MPC114609
298P/Christensen,e,7.8707,52.8072,100.5945,3.589341,0.1449379,0.38639945,183.5429,02/24.0/2024,2000,g 15.0,4.0
# From MPEC 2024-D33
299P/Catalina-PANSTARRS,e,10.4677,271.5837,323.6957,4.389621,0.1071676,0.28095090,352.8842,02/24.0/2024,2000,g 11.5,4.0
# From MPEC 2023-VM5
300P/Catalina,e,5.6754,95.6170,222.9304,2.697816,0.2224261,0.69175452,70.9294,02/24.0/2024,2000,g 16.0,4.0
# From MPC 89014
301P/LINEAR-NEAT,e,10.3326,351.0820,193.5119,5.745652,0.0715641,0.58578559,249.3714,02/24.0/2024,2000,g 13.0,4.0
# From MPEC 2023-N01
302P/Lemmon-PANSTARRS,e,6.0345,121.7159,208.5942,4.270622,0.1116779,0.22992166,317.6525,02/24.0/2024,2000,g 12.5,4.0
# From MPC 92278
303P/NEAT,e,7.0174,347.9797,357.0001,5.041865,0.0870597,0.51062523,296.7304,02/24.0/2024,2000,g 13.5,4.0
# From MPEC 2022-K19
304P/Ory,e,2.6064,58.9406,335.2576,3.150430,0.1762582,0.60100064,227.2772,02/24.0/2024,2000,g 16.5,4.0
# From MPC101100
305P/Skiff,e,11.6669,240.1473,147.3705,4.636434,0.0987252,0.69399617,333.6291,02/24.0/2024,2000,g 18.0,4.0
# From MPC 92278
306P/LINEAR,e,8.3051,341.3729,0.8909,3.124476,0.1784589,0.59279870,266.3866,02/24.0/2024,2000,g 19.0,4.0
# From MPC 92278
307P/LINEAR,e,4.4367,158.1688,222.1934,5.788268,0.0707752,0.67548583,236.7046,02/24.0/2024,2000,g 15.0,4.0
# From MPEC 2022-C56
308P/Lagerkvist-Carsenty,e,4.8533,63.0962,333.6943,6.599523,0.0581347,0.36469955,186.4801,02/24.0/2024,2000,g 13.0,2.0
# From MPEC 2024-BE0
309P/LINEAR,e,17.0221,10.1440,49.9153,4.376947,0.1076334,0.61851610,356.3399,02/24.0/2024,2000,g 15.0,4.0
# From MPEC 2024-C04
310P/Hill,e,13.1197,8.9036,31.5751,4.186164,0.1150747,0.42273411,14.2110,02/24.0/2024,2000,g 13.5,4.0
# From MPEC 2024-A43
311P/PANSTARRS,e,4.9709,279.1719,144.2549,2.188667,0.3043930,0.11580553,16.1651,02/24.0/2024,2000,g 17.0,4.0
# From MPEC 2021-BE3
312P/NEAT,e,19.7587,144.7012,207.6598,3.470996,0.1524133,0.42721819,190.0627,02/24.0/2024,2000,g 16.0,4.0
# From MPEC 2021-S45
313P/Gibbs,e,10.9806,106.0004,254.8642,3.164217,0.1751075,0.23474579,246.6258,02/24.0/2024,2000,g 15.0,4.0
# From MPC105243
314P/Montani,e,3.9901,267.6145,213.8552,7.252520,0.0504627,0.41771328,135.9090,02/24.0/2024,2000,g  9.5,4.0
# From MPEC 2023-J29
315P/LONEOS,e,17.7322,68.7027,65.7975,4.938954,0.0897949,0.52149698,237.6937,02/24.0/2024,2000,g 11.0,4.0
# From MPC 92279
316P/LONEOS-Christensen,e,9.7999,192.1925,243.0837,4.421503,0.1060106,0.15860415,334.5400,02/24.0/2024,2000,g 13.5,4.0
# From MPEC 2020-C98
317P/WISE,e,11.9659,275.4663,334.8237,2.961358,0.1934050,0.57128506,241.0213,02/24.0/2024,2000,g 17.5,4.0
# From MPC102103
318P/McNaught-Hartley,e,17.8748,35.5623,313.3243,7.509664,0.0478931,0.67436268,145.7555,02/24.0/2024,2000,g  8.5,6.0
# From MPC 97499
319P/Catalina-McNaught,e,15.0941,111.3455,203.6596,3.563717,0.1465039,0.66633724,101.7928,02/24.0/2024,2000,g 15.0,4.0
# From MPC 96281
320P/McNaught,e,4.9037,295.9419,0.7800,3.095000,0.1810144,0.68485891,205.2173,02/24.0/2024,2000,g 20.5,4.0
# From MPC105243
321P/SOHO,e,20.0787,165.0110,172.7502,2.422392,0.2614192,0.98105659,0.0000,10/26.6086/2023,2000,g 20.0,4.0
# From MPC102103
322P/SOHO,e,11.4715,351.4998,56.9173,2.508051,0.2481416,0.97998122,0.0000,08/21.0898/2023,2000,g 19.0,4.0
# From MPEC 2023-XP6
323P/SOHO,e,5.3317,324.2796,353.1312,2.583456,0.2373572,0.98463190,0.0000,03/14.3095/2025,2000,g 20.0,4.0
# From MPEC 2021-W31
324P/LaSagra,e,21.3996,270.5778,57.5471,3.095623,0.1809597,0.15323592,185.5667,02/24.0/2024,2000,g 13.0,4.0
# From MPEC 2022-TA0
325P/Yang-Gao,e,16.7877,257.1302,344.5779,3.542338,0.1478322,0.59156783,103.0978,02/24.0/2024,2000,g 14.0,4.0
# From MPEC 2023-XP6
326P/Hill,e,2.4712,99.7903,278.6357,4.069446,0.1200608,0.31938829,6.6810,02/24.0/2024,2000,g 13.5,4.0
# From MPEC 2024-A43
327P/VanNess,e,36.2473,173.9891,185.0350,3.562229,0.1465957,0.56296046,79.1177,02/24.0/2024,2000,g 16.0,4.0
# From MPC109148
328P/LONEOS-Tucker,e,17.6755,341.6512,30.6082,4.188064,0.1149964,0.55266556,342.1783,02/24.0/2024,2000,g 14.5,4.0
# From MPC101101
329P/LINEAR-Catalina,e,21.7125,87.6856,343.5539,5.185503,0.0834676,0.67873228,250.7052,02/24.0/2024,2000,g 13.5,4.0
# From MPEC 2023-J29
330P/Catalina,e,15.7268,293.0793,188.8202,6.618513,0.0578847,0.54976122,158.4065,02/24.0/2024,2000,g 12.0,4.0
# From MPEC 2023-KD6
331P/Gibbs,e,9.7402,216.7518,184.9331,3.004444,0.1892596,0.04147821,233.8682,02/24.0/2024,2000,g 12.0,4.0
# From MPEC 2016-K18
332P/Ikeya-Murakami,e,9.3820,3.7613,152.2918,3.086924,0.1817252,0.48941362,167.1502,02/24.0/2024,2000,g 18.0,4.0
# From MPEC 2016-K18
332P-A/Ikeya-Murakami,e,9.3825,152.3094,3.7438,3.086919,0.1817256,0.48941716,167.1498,02/24.0/2024,2000,g  9.0,4.0
# From MPEC 2016-EI8
332P-B/Ikeya-Murakami,e,9.3805,3.8028,152.3711,3.082329,0.1821317,0.48970701,359.9699,03/17.0/2016,2000,g 19.0,4.0
# From MPEC 2016-K18
332P-C/Ikeya-Murakami,e,9.3815,152.3007,3.7442,3.086886,0.1817286,0.48942271,167.1667,02/24.0/2024,2000,g 16.5,4.0
# From MPEC 2016-ED0
332P-D/Ikeya-Murakami,e,9.3761,3.7923,152.4393,3.081138,0.1822373,0.48977814,359.9486,03/17.0/2016,2000,g 19.0,4.0
# From MPEC 2016-ED0
332P-E/Ikeya-Murakami,e,9.3774,3.8228,152.2825,3.079877,0.1823493,0.48922008,359.9889,03/17.0/2016,2000,g 21.0,4.0
# From MPEC 2016-ED0
332P-F/Ikeya-Murakami,e,9.5293,3.4757,152.8203,3.163214,0.1751908,0.49918860,359.8501,03/17.0/2016,2000,g 21.0,4.0
# From MPEC 2016-ED0
332P-G/Ikeya-Murakami,e,9.2523,3.6955,154.4000,3.050519,0.1849880,0.49200362,359.9006,03/19.0/2016,2000,g 19.0,4.0
# From MPC100285
332P-H/Ikeya-Murakami,e,9.3820,152.3014,3.7439,3.087067,0.1817125,0.48945834,167.0867,02/24.0/2024,2000,g 19.0,4.0
# From MPEC 2016-ED0
332P-I/Ikeya-Murakami,e,9.3791,3.8048,152.3297,3.081767,0.1821815,0.48955490,359.9360,03/17.0/2016,2000,g 20.5,2.0
# From MPEC 2016-EI8
332P-J/Ikeya-Murakami,e,9.4296,3.6729,152.7712,3.115165,0.1792596,0.49429435,359.8613,03/17.0/2016,2000,g 20.5,2.0
# From MPEC 2020-L06
333P/LINEAR,e,132.0102,115.6584,26.0056,4.221911,0.1136162,0.73650532,328.3002,02/24.0/2024,2000,g 15.0,4.0
# From MPEC 2023-J29
334P/NEAT,e,20.3777,90.4935,90.0421,6.830591,0.0552099,0.35098848,135.6497,02/24.0/2024,2000,g 10.5,4.0
# From MPEC 2023-M14
335P/Gibbs,e,7.2936,330.8219,162.2989,3.577888,0.1456344,0.54644175,81.6909,02/24.0/2024,2000,g 16.8,4.0
# From MPC105244
336P/McNaught,e,17.8246,298.2174,308.6510,5.037720,0.0871672,0.44390106,225.2754,02/24.0/2024,2000,g 13.5,4.0
# From MPEC 2024-A43
337P/WISE,e,15.4466,105.4063,161.8637,3.294816,0.1648001,0.49839541,99.1310,02/24.0/2024,2000,g 17.0,4.0
# From MPEC 2023-J29
338P/McNaught,e,25.3867,9.7933,4.5718,3.891737,0.1283775,0.41212144,339.3343,02/24.0/2024,2000,g 12.0,4.0
# From MPC101101
339P/Gibbs,e,5.7331,27.4772,172.6973,3.700476,0.1384579,0.63566677,24.5160,02/24.0/2024,2000,g 17.0,4.0
# From MPC133426
340P/Boattini,e,2.0784,291.6724,36.0444,4.249060,0.1125291,0.28040798,297.8698,02/24.0/2024,2000,g 14.3,4.0
# From MPEC 2023-J29
341P/Gibbs,e,3.7966,29.9646,312.3227,4.288269,0.1109893,0.41549405,312.9875,02/24.0/2024,2000,g 12.5,4.0
# From MPC101101
342P/SOHO,e,11.6918,73.3146,27.6407,3.041134,0.1858449,0.98290185,0.0000,10/19.3778/2021,2000,g  9.0,4.0
# From MPEC 2023-J29
343P/NEAT-LONEOS,e,5.5958,257.0668,137.5690,5.457489,0.0773063,0.58525867,199.2873,02/24.0/2024,2000,g 14.0,4.0
# From MPEC 2023-J29
344P/Read,e,3.4982,273.1018,140.5392,4.858129,0.0920451,0.42371745,245.2743,02/24.0/2024,2000,g 13.0,4.0
# From MPEC 2022-K19
345P/LINEAR,e,2.7279,154.5952,196.6526,4.032001,0.1217372,0.22128389,337.0055,02/24.0/2024,2000,g 12.0,4.0
# From MPEC 2022-K19
346P/Catalina,e,22.2155,102.4539,336.0057,4.471017,0.1042544,0.50377313,267.2976,02/24.0/2024,2000,g 14.0,4.0
# From MPEC 2023-XP6
347P/PANSTARRS,e,11.7598,260.9885,98.3957,3.607442,0.1438484,0.38685371,31.5160,02/24.0/2024,2000,g 15.0,4.0
# From MPEC 2022-ED3
348P/PANSTARRS,e,17.7371,312.9357,135.7049,3.151951,0.1761306,0.30732165,130.5405,02/24.0/2024,2000,g 14.0,4.0
# From MPEC 2024-BE0
349P/Lemmon,e,5.4885,331.7533,255.7972,3.578356,0.1456058,0.29854012,346.4359,02/24.0/2024,2000,g 14.0,4.0
# From MPC111775
350P/McNaught,e,7.3639,65.2933,139.8976,4.081753,0.1195182,0.09430214,270.1644,02/24.0/2024,2000,g 14.0,4.0
# From MPC105244
351P/Wiegert-PANSTARRS,e,12.7762,352.6831,283.3321,4.440520,0.1053303,0.29480965,318.2375,02/24.0/2024,2000,g 12.5,4.0
# From MPEC 2023-J29
352P/Skiff,e,21.0135,28.0067,309.4041,6.651443,0.0574553,0.61700934,140.0946,02/24.0/2024,2000,g 13.2,4.0
# From MPEC 2020-AA5
353P/McNaught,e,28.4165,121.5357,230.4825,4.170658,0.1157170,0.47004825,260.6872,02/24.0/2024,2000,g 14.5,4.0
# From MPC105545
354P/LINEAR,e,5.2530,132.7460,320.0415,2.289872,0.2844378,0.12454512,37.8520,02/24.0/2024,2000,g 15.5,4.0
# From MPEC 2023-CD7
355P/LINEAR-NEAT,e,11.0472,51.4341,336.3352,3.469117,0.1525371,0.50801004,354.2930,02/24.0/2024,2000,g 15.5,2.0
# From MPEC 2022-F14
356P/WISE,e,9.6401,160.8159,226.1160,4.154834,0.1163787,0.35607118,262.3659,02/24.0/2024,2000,g 14.0,4.0
# From MPC114609
357P/Hill,e,6.3147,44.5810,1.4374,4.456378,0.1047686,0.43611169,219.2921,02/24.0/2024,2000,g 15.5,4.0
# From MPEC 2024-BE0
358P/PANSTARRS,e,11.0627,85.6695,299.6523,3.149941,0.1762992,0.23977327,18.5820,02/24.0/2024,2000,g 18.0,4.0
# From MPC110086
359P/LONEOS,e,10.2644,149.7769,200.2883,4.641089,0.0985767,0.32366744,234.1348,02/24.0/2024,2000,g 13.5,4.0
# From MPC108599
360P/WISE,e,24.1083,2.2149,354.2286,3.697610,0.1386189,0.49919870,329.1262,02/24.0/2024,2000,g 19.5,6.0
# From MPEC 2023-CD7
361P/Spacewatch,e,13.9028,203.2567,219.0462,4.933835,0.0899347,0.43950594,185.2051,02/24.0/2024,2000,g 12.0,4.0
# From MPEC 2017-V13
